[{"OBJECT_NAME":"YAOGAN-43 02B","OBJECT_ID":"2024-156B","EPOCH":"2026-03-09T09:55:42.611232","MEAN_MOTION":15.23399653,"ECCENTRICITY":0.00021542,"INCLINATION":34.9944,"RA_OF_ASC_NODE":105.5294,"ARG_OF_PERICENTER":182.9946,"MEAN_ANOMALY":177.0756,"EPHEMERIS_TYPE":0,"CLASSIFICATION_TYPE":"U","NORAD_CAT_ID":60946,"ELEMENT_SET_NO":999,"REV_AT_EPOCH":8422,"BSTAR":0.00062307708,"MEAN_MOTION_DOT":0.00015184,"MEAN_MOTION_DDOT":0},{"OBJECT_NAME":"SITRO-AIS-64","OBJECT_ID":"2025-313AW","EPOCH":"2026-03-09T22:35:09.372480","MEAN_MOTION":15.230077,"ECCENTRICITY":0.00087165,"INCLINATION":97.4006,"RA_OF_ASC_NODE":145.3433,"ARG_OF_PERICENTER":353.6224,"MEAN_ANOMALY":6.49,"EPHEMERIS_TYPE":0,"CLASSIFICATION_TYPE":"U","NORAD_CAT_ID":67292,"ELEMENT_SET_NO":999,"REV_AT_EPOCH":1086,"BSTAR":0.00054511054,"MEAN_MOTION_DOT":0.00012775,"MEAN_MOTION_DDOT":0}]
